GPS BIIR-2  (PRN 13)    
1 24876C 97035A   22359.71090278 -.00000000  00000-0  00000-0 0  3597
2 24876  55.5389 148.2095 0065462  53.2943 230.5958  2.00563863    18
GPS BIIR-4  (PRN 20)    
1 26360C 00025A   22359.71090278 -.00000000  00000-0  00000-0 0  3590
2 26360  54.2173  70.9783 0046950 192.0910 182.2400  2.00558639    17
GPS BIIR-6  (PRN 22)    
1 26605C 00071A   22359.71090278 -.00000000  00000-0  00000-0 0  3593
2 26605  55.1262 145.1208 0138977 254.7241 242.2195  2.00552586    12
GPS BIIR-8  (PRN 16)    
1 27663C 03005A   22359.71090278  .00000000  00000-0  00000-0 0  3597
2 27663  55.3894 265.4621 0130581  42.0672 307.3303  2.00553092    11
GPS BIIR-9  (PRN 21)    
1 27704C 03010A   22359.71090278 -.00000000  00000-0  00000-0 0  3590
2 27704  55.0802  15.5711 0248649 311.0785 255.6714  2.00563963    15
GPS BIIR-11 (PRN 19)    
1 28190C 04009A   22359.71090278  .00000000  00000-0  00000-0 0  3598
2 28190  55.8801 326.4859 0088169 128.1892  16.0578  2.00572820    13
GPS BIIR-13 (PRN 02)    
1 28474C 04045A   22359.71090278 -.00000000  00000-0  00000-0 0  3594
2 28474  55.4054  15.7850 0202880 282.6233  74.1982  2.00561441    17
GPS BIIRM-1 (PRN 17)    
1 28874C 05038A   22359.71090278  .00000000  00000-0  00000-0 0  3590
2 28874  55.9391 323.9274 0140605 277.3253 256.6820  2.00562478    12
GPS BIIRM-2 (PRN 31)    
1 29486C 06042A   22359.71090278  .00000000  00000-0  00000-0 0  3596
2 29486  54.6982 201.6754 0106736  26.6878  62.5525  2.00568005    12
GPS BIIRM-3 (PRN 12)    
1 29601C 06052A   22359.71090278  .00000000  00000-0  00000-0 0  3596
2 29601  55.4022 264.4083 0085481  75.3232  50.5562  2.00561373    14
GPS BIIRM-4 (PRN 15)    
1 32260C 07047A   22359.71090278 -.00000000  00000-0  00000-0 0  3597
2 32260  53.3714 132.6147 0145376  66.7194 201.6127  2.00565112    13
GPS BIIRM-5 (PRN 29)    
1 32384C 07062A   22359.71090278  .00000000  00000-0  00000-0 0  3590
2 32384  56.0639 324.7140 0019569 145.5625 249.0945  2.00571825    14
GPS BIIRM-6 (PRN 07)    
1 32711C 08012A   22359.71090278  .00000000  00000-0  00000-0 0  3590
2 32711  54.4614 200.5668 0167087 232.4908  93.6835  2.00570943    19
GPS BIIRM-8 (PRN 05)    
1 35752C 09043A   22359.71090278 -.00000000  00000-0  00000-0 0  3594
2 35752  55.2232  77.8379 0056002  64.4179 276.0499  2.00573831    15
GPS BIIF-1  (PRN 25)    
1 36585C 10022A   22359.71090278  .00000000  00000-0  00000-0 0  3597
2 36585  54.6916 259.7947 0108212  57.2770  45.2068  2.00575051    16
GPS BIIF-2  (PRN 01)    
1 37753C 11036A   22359.71090278 -.00000000  00000-0  00000-0 0  3592
2 37753  56.6799  21.2672 0119415  53.0412 129.8191  2.00566161    14
GPS BIIF-3  (PRN 24)    
1 38833C 12053A   22359.71090278  .00000000  00000-0  00000-0 0  3591
2 38833  53.5193 195.5220 0134332  49.4459 146.1469  2.00563954    14
GPS BIIF-4  (PRN 27)    
1 39166C 13023A   22359.71090278  .00000000  00000-0  00000-0 0  3599
2 39166  55.5598 320.2252 0108694  38.2698 259.1379  2.00564856    17
GPS BIIF-5  (PRN 30)    
1 39533C 14008A   22359.71090278  .00000000  00000-0  00000-0 0  3591
2 39533  53.6097 201.0494 0060916 209.0004  85.1400  2.00564155    19
GPS BIIF-6  (PRN 06)    
1 39741C 14026A   22359.71090278 -.00000000  00000-0  00000-0 0  3593
2 39741  56.6378  20.7920 0029749 305.8256 147.9148  2.00574666    12
GPS BIIF-7  (PRN 09)    
1 40105C 14045A   22359.71090278 -.00000000  00000-0  00000-0 0  3590
2 40105  54.7380 139.1659 0024157 113.7917 275.2491  2.00560147    17
GPS BIIF-8  (PRN 03)    
1 40294C 14068A   22359.71090278 -.00000000  00000-0  00000-0 0  3594
2 40294  55.9662  80.3904 0042107  58.0790  65.2119  2.00554355    15
GPS BIIF-9  (PRN 26)    
1 40534C 15013A   22359.71090278  .00000000  00000-0  00000-0 0  3591
2 40534  53.5909 256.7683 0075919  22.4651   1.1893  2.00569987    16
GPS BIIF-10 (PRN 08)    
1 40730C 15033A   22359.71090278  .00000000  00000-0  00000-0 0  3591
2 40730  55.0535 318.9619 0080060   8.7406 260.2207  2.00567845    12
GPS BIIF-11 (PRN 10)    
1 41019C 15062A   22359.71090278 -.00000000  00000-0  00000-0 0  3595
2 41019  55.9527  80.2367 0084943 219.4466  10.5976  2.00562194    14
GPS BIIF-12 (PRN 32)    
1 41328C 16007A   22359.71090278 -.00000000  00000-0  00000-0 0  3598
2 41328  54.9500 139.8833 0065558 230.2419 297.1483  2.00561818    14
GPS BIII-1  (PRN 04)    
1 43873C 18109A   22359.71090278 -.00000000  00000-0  00000-0 0  3590
2 43873  55.1284 142.3440 0022672 188.2849 229.8078  2.00557308    16
GPS BIII-2  (PRN 18)    
1 44506C 19056A   22359.71090278 -.00000000  00000-0  00000-0 0  3596
2 44506  55.7552  21.4517 0029859 186.0933 132.6342  2.00559924    11
GPS BIII-3  (PRN 23)    
1 45854C 20041A   22359.71090278 -.00000000  00000-0  00000-0 0  3599
2 45854  55.6728  78.7219 0029600 183.7276  75.5846  2.00567090    11
GPS BIII-4  (PRN 14)    
1 46826C 20078A   22359.71090278  .00000000  00000-0  00000-0 0  3598
2 46826  54.4485 262.3308 0025083 189.6957  45.9744  2.00564561    18
GPS BIII-5  (PRN 11)    
1 48859C 21054A   22359.71090278 -.00000000  00000-0  00000-0 0  3592
2 48859  55.2657  23.3581 0009131 215.3454 204.8536  2.00562321    16
